[{"OBJECT_NAME":"NEXTSAT-2","OBJECT_ID":"2023-072A","EPOCH":"2026-03-09T23:10:55.073280","MEAN_MOTION":15.26393087,"ECCENTRICITY":0.00062633,"INCLINATION":97.5306,"RA_OF_ASC_NODE":265.1019,"ARG_OF_PERICENTER":22.4193,"MEAN_ANOMALY":337.7318,"EPHEMERIS_TYPE":0,"CLASSIFICATION_TYPE":"U","NORAD_CAT_ID":56743,"ELEMENT_SET_NO":999,"REV_AT_EPOCH":15445,"BSTAR":0.00056400163,"MEAN_MOTION_DOT":0.00014622,"MEAN_MOTION_DDOT":0},{"OBJECT_NAME":"STARLINK-32405","OBJECT_ID":"2024-191R","EPOCH":"2026-03-09T05:49:13.932768","MEAN_MOTION":15.27567531,"ECCENTRICITY":0.00033986,"INCLINATION":43.0024,"RA_OF_ASC_NODE":160.8737,"ARG_OF_PERICENTER":286.9855,"MEAN_ANOMALY":73.0624,"EPHEMERIS_TYPE":0,"CLASSIFICATION_TYPE":"U","NORAD_CAT_ID":61636,"ELEMENT_SET_NO":999,"REV_AT_EPOCH":7742,"BSTAR":-2.9301245e-5,"MEAN_MOTION_DOT":-1.069e-5,"MEAN_MOTION_DDOT":0}]
